2025-313BE              
1 67482U 25313BE  26043.15169536  .00078172  00000+0  30225-2 0  9990
2 67482  97.4061 119.9917 0008472  78.5239 281.6950 15.25879184  4070
ION SCV-021             
1 67483U 25276DT  26034.18647169 -.00137880  00000+0 -12184-1 0  9992
2 67483  97.5347 109.4970 0011364 207.9438 152.1175 14.97059561  2554
STARLINK-36551          
1 67493U 26012A   26043.50002314 -.01889059  00000+0 -43296-1 0  9996
2 67493  43.0003  97.3606 0000884 291.6318 348.2575 15.45194262  5022
STARLINK-36396          
1 67494U 26012B   26043.50669402  .00091001  00000+0  15335-2 0  9997
2 67494  43.0004  98.1000 0001113 358.6780   1.4077 15.50679657  3894
STARLINK-36550          
1 67495U 26012C   26043.50002314  .00020949  00000+0  36222-3 0  9993
2 67495  43.0008  97.6369 0001304 275.1906 252.3003 15.50557775  5025
STARLINK-36534          
1 67496U 26012D   26043.50002314 -.01917100  00000+0 -37764-1 0  9991
2 67496  43.0000  97.3498 0001303 270.9731  12.4229 15.49553827  4965
STARLINK-36555          
1 67497U 26012E   26043.50002314 -.01909151  00000+0 -38084-1 0  9995
2 67497  43.0000  97.3692 0000845 288.9571 347.1043 15.49190694  5022
STARLINK-36081          
1 67498U 26012F   26043.50002314 -.00017986  00000+0 -30163-3 0  9993
2 67498  43.0009  97.6320 0001449 273.4091 255.6670 15.50563493  4964
STARLINK-36558          
1 67499U 26012G   26043.50002314 -.00028793  00000+0 -48693-3 0  9999
2 67499  43.0008  97.6257 0001567 277.5495 254.0088 15.50569624  5023
STARLINK-36557          
1 67500U 26012H   26043.50002314 -.01880470  00000+0 -39638-1 0  9998
2 67500  42.9995  97.1061 0001147 280.3405 102.0476 15.47580448  5020
STARLINK-36433          
1 67501U 26012J   26043.50002314 -.01894402  00000+0 -39440-1 0  9990
2 67501  42.9993  97.0688 0001277 283.8680 113.4115 15.47954996  5029
STARLINK-36554          
1 67502U 26012K   26043.50002314  .00044883  00000+0  76716-3 0  9997
2 67502  42.9999  97.3682 0001198 285.6209 350.1159 15.50554957  4969
