CCSDS_OMM_VERS = 2.0
CREATION_DATE  = 
ORIGINATOR     = 

OBJECT_NAME    = 2025-313BE
OBJECT_ID      = 2025-313BE
CENTER_NAME    = EARTH
REF_FRAME      = TEME
TIME_SYSTEM    = UTC
MEAN_ELEMENT_THEORY = SGP/SGP4

EPOCH          = 2026-02-12T03:38:26.479104
MEAN_MOTION    = 15.25879184
ECCENTRICITY   = .0008472
INCLINATION    = 97.4061
RA_OF_ASC_NODE = 119.9917
ARG_OF_PERICENTER = 78.5239
MEAN_ANOMALY   = 281.6950

EPHEMERIS_TYPE = 0
CLASSIFICATION_TYPE = U
NORAD_CAT_ID   = 67482
ELEMENT_SET_NO = 999
REV_AT_EPOCH   = 407
BSTAR          = .30225E-2
MEAN_MOTION_DOT = .78172E-3
MEAN_MOTION_DDOT = 0

CCSDS_OMM_VERS = 2.0
CREATION_DATE  = 
ORIGINATOR     = 

OBJECT_NAME    = ION SCV-021
OBJECT_ID      = 2025-276DT
CENTER_NAME    = EARTH
REF_FRAME      = TEME
TIME_SYSTEM    = UTC
MEAN_ELEMENT_THEORY = SGP/SGP4

EPOCH          = 2026-02-03T04:28:31.154016
MEAN_MOTION    = 14.97059561
ECCENTRICITY   = .00113647
INCLINATION    = 97.5347
RA_OF_ASC_NODE = 109.4970
ARG_OF_PERICENTER = 207.9438
MEAN_ANOMALY   = 152.1175

EPHEMERIS_TYPE = 0
CLASSIFICATION_TYPE = U
NORAD_CAT_ID   = 67483
ELEMENT_SET_NO = 999
REV_AT_EPOCH   = 255
BSTAR          = -.1218394E-1
MEAN_MOTION_DOT = -.13788E-2
MEAN_MOTION_DDOT = 0

CCSDS_OMM_VERS = 2.0
CREATION_DATE  = 
ORIGINATOR     = 

OBJECT_NAME    = STARLINK-36551
OBJECT_ID      = 2026-012A
CENTER_NAME    = EARTH
REF_FRAME      = TEME
TIME_SYSTEM    = UTC
MEAN_ELEMENT_THEORY = SGP/SGP4

EPOCH          = 2026-02-12T12:00:01.999296
MEAN_MOTION    = 15.45194262
ECCENTRICITY   = .0000884
INCLINATION    = 43.0003
RA_OF_ASC_NODE = 97.3606
ARG_OF_PERICENTER = 291.6318
MEAN_ANOMALY   = 348.2575

EPHEMERIS_TYPE = 0
CLASSIFICATION_TYPE = U
NORAD_CAT_ID   = 67493
ELEMENT_SET_NO = 999
REV_AT_EPOCH   = 502
BSTAR          = -.43296E-1
MEAN_MOTION_DOT = -.1889059E-1
MEAN_MOTION_DDOT = 0

CCSDS_OMM_VERS = 2.0
CREATION_DATE  = 
ORIGINATOR     = 

OBJECT_NAME    = STARLINK-36396
OBJECT_ID      = 2026-012B
CENTER_NAME    = EARTH
REF_FRAME      = TEME
TIME_SYSTEM    = UTC
MEAN_ELEMENT_THEORY = SGP/SGP4

EPOCH          = 2026-02-12T12:09:38.363328
MEAN_MOTION    = 15.50679657
ECCENTRICITY   = .0001113
INCLINATION    = 43.0004
RA_OF_ASC_NODE = 98.1000
ARG_OF_PERICENTER = 358.6780
MEAN_ANOMALY   = 1.4077

EPHEMERIS_TYPE = 0
CLASSIFICATION_TYPE = U
NORAD_CAT_ID   = 67494
ELEMENT_SET_NO = 999
REV_AT_EPOCH   = 389
BSTAR          = .15335E-2
MEAN_MOTION_DOT = .91001E-3
MEAN_MOTION_DDOT = 0

CCSDS_OMM_VERS = 2.0
CREATION_DATE  = 
ORIGINATOR     = 

OBJECT_NAME    = STARLINK-36550
OBJECT_ID      = 2026-012C
CENTER_NAME    = EARTH
REF_FRAME      = TEME
TIME_SYSTEM    = UTC
MEAN_ELEMENT_THEORY = SGP/SGP4

EPOCH          = 2026-02-12T12:00:01.999296
MEAN_MOTION    = 15.50557775
ECCENTRICITY   = .0001304
INCLINATION    = 43.0008
RA_OF_ASC_NODE = 97.6369
ARG_OF_PERICENTER = 275.1906
MEAN_ANOMALY   = 252.3003

EPHEMERIS_TYPE = 0
CLASSIFICATION_TYPE = U
NORAD_CAT_ID   = 67495
ELEMENT_SET_NO = 999
REV_AT_EPOCH   = 502
BSTAR          = .36222E-3
MEAN_MOTION_DOT = .20949E-3
MEAN_MOTION_DDOT = 0

CCSDS_OMM_VERS = 2.0
CREATION_DATE  = 
ORIGINATOR     = 

OBJECT_NAME    = STARLINK-36534
OBJECT_ID      = 2026-012D
CENTER_NAME    = EARTH
REF_FRAME      = TEME
TIME_SYSTEM    = UTC
MEAN_ELEMENT_THEORY = SGP/SGP4

EPOCH          = 2026-02-12T12:00:01.999296
MEAN_MOTION    = 15.49553827
ECCENTRICITY   = .0001303
INCLINATION    = 43.0000
RA_OF_ASC_NODE = 97.3498
ARG_OF_PERICENTER = 270.9731
MEAN_ANOMALY   = 12.4229

EPHEMERIS_TYPE = 0
CLASSIFICATION_TYPE = U
NORAD_CAT_ID   = 67496
ELEMENT_SET_NO = 999
REV_AT_EPOCH   = 496
BSTAR          = -.37764E-1
MEAN_MOTION_DOT = -.19171E-1
MEAN_MOTION_DDOT = 0

CCSDS_OMM_VERS = 2.0
CREATION_DATE  = 
ORIGINATOR     = 

OBJECT_NAME    = STARLINK-36555
OBJECT_ID      = 2026-012E
CENTER_NAME    = EARTH
REF_FRAME      = TEME
TIME_SYSTEM    = UTC
MEAN_ELEMENT_THEORY = SGP/SGP4

EPOCH          = 2026-02-12T12:00:01.999296
MEAN_MOTION    = 15.49190694
ECCENTRICITY   = .0000845
INCLINATION    = 43.0000
RA_OF_ASC_NODE = 97.3692
ARG_OF_PERICENTER = 288.9571
MEAN_ANOMALY   = 347.1043

EPHEMERIS_TYPE = 0
CLASSIFICATION_TYPE = U
NORAD_CAT_ID   = 67497
ELEMENT_SET_NO = 999
REV_AT_EPOCH   = 502
BSTAR          = -.38084E-1
MEAN_MOTION_DOT = -.1909151E-1
MEAN_MOTION_DDOT = 0

CCSDS_OMM_VERS = 2.0
CREATION_DATE  = 
ORIGINATOR     = 

OBJECT_NAME    = STARLINK-36081
OBJECT_ID      = 2026-012F
CENTER_NAME    = EARTH
REF_FRAME      = TEME
TIME_SYSTEM    = UTC
MEAN_ELEMENT_THEORY = SGP/SGP4

EPOCH          = 2026-02-12T12:00:01.999296
MEAN_MOTION    = 15.50563493
ECCENTRICITY   = .0001449
INCLINATION    = 43.0009
RA_OF_ASC_NODE = 97.6320
ARG_OF_PERICENTER = 273.4091
MEAN_ANOMALY   = 255.6670

EPHEMERIS_TYPE = 0
CLASSIFICATION_TYPE = U
NORAD_CAT_ID   = 67498
ELEMENT_SET_NO = 999
REV_AT_EPOCH   = 496
BSTAR          = -.30163E-3
MEAN_MOTION_DOT = -.17986E-3
MEAN_MOTION_DDOT = 0

CCSDS_OMM_VERS = 2.0
CREATION_DATE  = 
ORIGINATOR     = 

OBJECT_NAME    = STARLINK-36558
OBJECT_ID      = 2026-012G
CENTER_NAME    = EARTH
REF_FRAME      = TEME
TIME_SYSTEM    = UTC
MEAN_ELEMENT_THEORY = SGP/SGP4

EPOCH          = 2026-02-12T12:00:01.999296
MEAN_MOTION    = 15.50569624
ECCENTRICITY   = .0001567
INCLINATION    = 43.0008
RA_OF_ASC_NODE = 97.6257
ARG_OF_PERICENTER = 277.5495
MEAN_ANOMALY   = 254.0088

EPHEMERIS_TYPE = 0
CLASSIFICATION_TYPE = U
NORAD_CAT_ID   = 67499
ELEMENT_SET_NO = 999
REV_AT_EPOCH   = 502
BSTAR          = -.48693E-3
MEAN_MOTION_DOT = -.28793E-3
MEAN_MOTION_DDOT = 0

CCSDS_OMM_VERS = 2.0
CREATION_DATE  = 
ORIGINATOR     = 

OBJECT_NAME    = STARLINK-36557
OBJECT_ID      = 2026-012H
CENTER_NAME    = EARTH
REF_FRAME      = TEME
TIME_SYSTEM    = UTC
MEAN_ELEMENT_THEORY = SGP/SGP4

EPOCH          = 2026-02-12T12:00:01.999296
MEAN_MOTION    = 15.47580448
ECCENTRICITY   = .0001147
INCLINATION    = 42.9995
RA_OF_ASC_NODE = 97.1061
ARG_OF_PERICENTER = 280.3405
MEAN_ANOMALY   = 102.0476

EPHEMERIS_TYPE = 0
CLASSIFICATION_TYPE = U
NORAD_CAT_ID   = 67500
ELEMENT_SET_NO = 999
REV_AT_EPOCH   = 502
BSTAR          = -.39638E-1
MEAN_MOTION_DOT = -.188047E-1
MEAN_MOTION_DDOT = 0

CCSDS_OMM_VERS = 2.0
CREATION_DATE  = 
ORIGINATOR     = 

OBJECT_NAME    = STARLINK-36433
OBJECT_ID      = 2026-012J
CENTER_NAME    = EARTH
REF_FRAME      = TEME
TIME_SYSTEM    = UTC
MEAN_ELEMENT_THEORY = SGP/SGP4

EPOCH          = 2026-02-12T12:00:01.999296
MEAN_MOTION    = 15.47954996
ECCENTRICITY   = .0001277
INCLINATION    = 42.9993
RA_OF_ASC_NODE = 97.0688
ARG_OF_PERICENTER = 283.8680
MEAN_ANOMALY   = 113.4115

EPHEMERIS_TYPE = 0
CLASSIFICATION_TYPE = U
NORAD_CAT_ID   = 67501
ELEMENT_SET_NO = 999
REV_AT_EPOCH   = 502
BSTAR          = -.3944E-1
MEAN_MOTION_DOT = -.1894402E-1
MEAN_MOTION_DDOT = 0

CCSDS_OMM_VERS = 2.0
CREATION_DATE  = 
ORIGINATOR     = 

OBJECT_NAME    = STARLINK-36554
OBJECT_ID      = 2026-012K
CENTER_NAME    = EARTH
REF_FRAME      = TEME
TIME_SYSTEM    = UTC
MEAN_ELEMENT_THEORY = SGP/SGP4

EPOCH          = 2026-02-12T12:00:01.999296
MEAN_MOTION    = 15.50554957
ECCENTRICITY   = .0001198
INCLINATION    = 42.9999
RA_OF_ASC_NODE = 97.3682
ARG_OF_PERICENTER = 285.6209
MEAN_ANOMALY   = 350.1159

EPHEMERIS_TYPE = 0
CLASSIFICATION_TYPE = U
NORAD_CAT_ID   = 67502
ELEMENT_SET_NO = 999
REV_AT_EPOCH   = 496
BSTAR          = .76716E-3
MEAN_MOTION_DOT = .44883E-3
MEAN_MOTION_DDOT = 0

